*******************************************************************************
Revised: Mar 11, 1998             Moon / (Earth)                            301
 
PHYSICAL PROPERTIES:
 Radius, km            = 1737.53+-0.03   Mass, 10^20 kg        =  734.9
 Density, gm cm^-3     =    3.3437       Geometric albedo      =    0.12
 V(1,0)                =   +0.21         GM, km^3/s^2          = 4902.798+-.005
 Earth/Moon mass ratio = 81.300587       Surface gravity       =    1.62 m s^-2
 Nearside crust. thick.= 58+-8 km        Farside crust. thick. = ~80 - 90 km
 Heat flow, Apollo 15  = 3.1+-.6 mW/m^2  Heat flow, Apollo 17  = 2.2+-.5 mW/m^2
 Mean crustal density  = 2.97+-.07g/cm^3 k2                    = 0.0302+-.0012 
 Induced magnetic mom. = 4.23x10^22Gcm^3 Magnetometer moment   = 435+-15

DYNAMICAL CHARACTERISTICS:
 Mean angular diameter = 31'05.2"        Orbit period          = 27.321582 d
 Obliquity to orbit    = 6.67 deg        Eccentricity          = 0.05490
 Semi-major axis, a    = 384400 km       Inclination           = 5.145 deg
 Mean motion, rad/s    = 2.6616995x10^-6 Nodal period          = 6798.38 d
 Apsidal period        = 3231.50 d       Mom. of inertia C/MR^2= 0.3935+-.0011
 beta (C-A/B), x10^-4  = 6.31(72+-15)    gamma (B-A/C), x10^-4 = 2.278(8+-2)
*******************************************************************************
 
 
*******************************************************************************
Ephemeris / WWW_USER Mon May  9 05:53:16 2011  Pasadena, USA     / Horizons    
*******************************************************************************
Target body name: Moon (301)                      {source: DE405}
Center body name: Earth (399)                     {source: DE405}
Center-site name: GEOCENTRIC
*******************************************************************************
Start time      : A.D. 2010-May-09 00:00:00.0000 UT      
Stop  time      : A.D. 2020-Jun-08 00:00:00.0000 UT      
Step-size       : 1440 minutes
*******************************************************************************
Target pole/equ : IAU_MOON                        {East-longitude +}
Target radii    : 1737.4 x 1737.4 x 1737.4 km     {Equator, meridian, pole}    
Center geodetic : 0.00000000,0.00000000,0.0000000 {E-lon(deg),Lat(deg),Alt(km)}
Center cylindric: 0.00000000,0.00000000,0.0000000 {E-lon(deg),Dxy(km),Dz(km)}
Center pole/equ : High-precision EOP model        {East-longitude +}
Center radii    : 6378.1 x 6378.1 x 6356.8 km     {Equator, meridian, pole}    
Target primary  : Earth                           {source: DE405+DE406}
Interfering body: MOON (Req= 1737.400) km         {source: DE405}
Deflecting body : Sun, EARTH                      {source: DE405}
Deflecting GMs  : 1.3271E+11, 3.9860E+05 km^3/s^2                              
Atmos refraction: NO (AIRLESS)
RA format       : HMS
Time format     : CAL 
EOP file        : eop.110506.p110728                                           
EOP coverage    : DATA-BASED 1962-JAN-20 TO 2011-MAY-06. PREDICTS-> 2011-JUL-27
Units conversion: 1 AU= 149597870.691 km, c= 299792.458 km/s, 1 day= 86400.0 s 
Table cut-offs 1: Elevation (-90.0deg=NO ),Airmass (>38.000=NO), Daylight (NO )
Table cut-offs 2: Solar Elongation (  0.0,180.0=NO )                           
*************************************************************************************************
 Date__(UT)__HR:MN     R.A._(ICRF/J2000.0)_DEC R.A.__(a-apparent)__DEC  APmag  S-brt   Illu% Cnst
*************************************************************************************************
$$SOE
 2017-Jan-04 00:00     23 27 49.56 -05 02 54.1 23 28 41.20 -04 57 21.5  -9.20   5.63  30.615  Aqr
 2017-Jan-05 00:00     00 19 08.42 -00 43 07.9 00 20 00.09 -00 37 33.9  -9.79   5.38  41.029  Psc
 2017-Jan-06 00:00     01 11 22.26 +03 43 50.8 01 12 14.76 +03 49 09.1 -10.31   5.14  52.096  Psc
 2017-Jan-07 00:00     02 05 10.74 +08 04 03.2 02 06 04.79 +08 08 47.8 -10.78   4.90  63.286  Psc
 2017-Jan-08 00:00     03 01 07.70 +12 01 35.7 03 02 03.84 +12 05 28.3 -11.21   4.66  73.990  Ari
 2017-Jan-09 00:00     03 59 29.96 +15 19 10.3 04 00 28.32 +15 21 53.2 -11.60   4.41  83.551  Tau
 2017-Jan-10 00:00     05 00 05.01 +17 39 50.5 05 01 05.18 +17 41 09.4 -11.98   4.14  91.328  Tau
 2017-Jan-11 00:00     06 02 03.94 +18 50 10.2 06 03 04.99 +18 49 56.8 -12.33   3.84  96.783  Ori
 2017-Jan-12 00:00     07 04 08.08 +18 43 46.1 07 05 08.82 +18 42 00.8 -12.66   3.53  99.565  Gem
 2017-Jan-13 00:00     08 04 51.18 +17 23 17.9 08 05 50.53 +17 20 09.8 -12.65   3.53  99.573  Cnc
 2017-Jan-14 00:00     09 03 05.80 +14 59 31.3 09 04 03.20 +14 55 16.4 -12.29   3.83  96.958  Cnc
 2017-Jan-15 00:00     09 58 19.03 +11 47 58.7 09 59 14.45 +11 42 55.7 -11.93   4.10  92.066  Leo
 2017-Jan-16 00:00     10 50 32.14 +08 05 13.0 10 51 25.95 +07 59 40.8 -11.57   4.35  85.354  Leo
 2017-Jan-17 00:00     11 40 10.71 +04 06 11.9 11 41 03.51 +04 00 28.2 -11.20   4.58  77.308  Vir
 2017-Jan-18 00:00     12 27 53.44 +00 03 16.4 12 28 45.91 -00 02 22.9 -10.83   4.79  68.384  Vir
 2017-Jan-19 00:00     13 14 23.80 -03 53 42.9 13 15 16.57 -03 59 04.0 -10.44   4.99  58.980  Vir
 2017-Jan-20 00:00     14 00 24.86 -07 36 46.4 14 01 18.45 -07 41 36.5 -10.03   5.20  49.432  Vir
 2017-Jan-21 00:00     14 46 36.10 -10 58 56.9 14 47 30.86 -11 03 04.6  -9.58   5.40  40.027  Lib
 2017-Jan-22 00:00     15 33 30.94 -13 53 40.6 15 34 27.03 -13 56 55.3  -9.09   5.62  31.027  Lib
 2017-Jan-23 00:00     16 21 34.15 -16 14 22.4 16 22 31.49 -16 16 34.8  -8.53   5.84  22.682  Sco
 2017-Jan-24 00:00     17 10 59.11 -17 54 25.1 17 11 57.36 -17 55 28.0  -7.88   6.07  15.248  Oph
 2017-Jan-25 00:00     18 01 45.57 -18 47 34.0 18 02 44.15 -18 47 23.0  -7.13   6.26   8.995  Sgr
 2017-Jan-26 00:00     18 53 39.40 -18 48 45.3 18 54 37.62 -18 47 19.8  -6.24   6.34   4.200  Sgr
 2017-Jan-27 00:00     19 46 15.82 -17 55 07.8 19 47 12.99 -17 52 31.4  -5.18   6.00   1.134  Sgr
 2017-Jan-28 00:00     20 39 06.03 -16 06 55.8 20 40 01.67 -16 03 16.6  -4.11   3.40   0.038  Cap
 2017-Jan-29 00:00     21 31 45.57 -13 27 55.9 21 32 39.54 -13 23 25.5  -5.19   5.98   1.087  Cap
 2017-Jan-30 00:00     22 24 01.29 -10 05 17.5 22 24 53.79 -10 00 10.2  -6.35   6.35   4.360  Aqr
 2017-Jan-31 00:00     23 15 54.82 -06 08 55.9 23 16 46.36 -06 03 27.3  -7.36   6.24   9.813  Aqr
 2017-Feb-01 00:00     00 07 42.15 -01 50 45.6 00 08 33.46 -01 45 12.2  -8.22   6.00  17.272  Psc
 2017-Feb-02 00:00     00 59 50.31 +02 35 58.8 01 00 42.20 +02 41 20.1  -8.96   5.74  26.431  Cet
 2017-Feb-03 00:00     01 52 52.18 +06 57 06.9 01 53 45.43 +07 01 58.9  -9.60   5.48  36.869  Psc
 2017-Feb-04 00:00     02 47 19.69 +10 57 47.6 02 48 14.88 +11 01 53.0 -10.14   5.23  48.074  Ari
 2017-Feb-05 00:00     03 43 35.35 +14 22 50.3 03 44 32.75 +14 25 52.6 -10.62   4.99  59.465  Tau
 2017-Feb-06 00:00     04 41 42.81 +16 57 38.0 04 42 42.20 +16 59 22.9 -11.05   4.75  70.424  Tau
 2017-Feb-07 00:00     05 41 19.25 +18 29 47.3 05 42 19.93 +18 30 04.9 -11.44   4.50  80.336  Tau
 2017-Feb-08 00:00     06 41 34.93 +18 51 25.3 06 42 35.86 +18 50 12.8 -11.80   4.25  88.630  Gem
 2017-Feb-09 00:00     07 41 23.83 +18 01 10.4 07 42 23.93 +17 58 32.8 -12.14   3.97  94.844  Gem
 2017-Feb-10 00:00     08 39 42.20 +16 04 48.6 08 40 40.70 +16 00 57.9 -12.46   3.68  98.671  Cnc
 2017-Feb-11 00:00     09 35 45.79 +13 13 53.9 09 36 42.40 +13 09 06.8 -12.76   3.37  99.991  Leo
 2017-Feb-12 00:00     10 29 17.39 +09 43 13.8 10 30 12.32 +09 37 48.8 -12.44   3.65  98.874  Leo
 2017-Feb-13 00:00     11 20 24.41 +05 48 09.7 11 21 18.16 +05 42 25.2 -12.10   3.93  95.543  Leo
 2017-Feb-14 00:00     12 09 31.23 +01 42 45.9 12 10 24.45 +01 36 58.9 -11.76   4.19  90.323  Vir
 2017-Feb-15 00:00     12 57 11.36 -02 21 00.1 12 58 04.70 -02 26 34.2 -11.42   4.42  83.584  Vir
 2017-Feb-16 00:00     13 44 01.50 -06 13 19.9 13 44 55.54 -06 18 27.2 -11.08   4.63  75.695  Vir
 2017-Feb-17 00:00     14 30 37.67 -09 46 08.3 14 31 32.82 -09 50 36.3 -10.73   4.83  66.999  Lib
 2017-Feb-18 00:00     15 17 32.46 -12 52 28.6 15 18 28.93 -12 56 06.3 -10.36   5.03  57.803  Lib
 2017-Feb-19 00:00     16 05 12.78 -15 26 01.4 16 06 10.55 -15 28 39.0  -9.96   5.23  48.387  Sco
 2017-Feb-20 00:00     16 53 57.60 -17 20 45.2 16 54 56.39 -17 22 14.9  -9.53   5.44  39.014  Oph
 2017-Feb-21 00:00     17 43 55.83 -18 30 56.1 17 44 55.13 -18 31 12.5  -9.03   5.66  29.950  Sgr
 2017-Feb-22 00:00     18 35 05.17 -18 51 28.3 18 36 04.27 -18 50 29.7  -8.46   5.89  21.486  Sgr
 2017-Feb-23 00:00     19 27 12.80 -18 18 35.2 19 28 10.98 -18 16 23.6  -7.78   6.12  13.943  Sgr
 2017-Feb-24 00:00     20 19 58.89 -16 50 41.5 20 20 55.55 -16 47 23.4  -6.96   6.31   7.677  Cap
 2017-Feb-25 00:00     21 13 02.35 -14 29 12.4 21 13 57.20 -14 24 58.2  -5.98   6.32   3.063  Cap
 2017-Feb-26 00:00     22 06 07.27 -11 19 05.4 22 07 00.36 -11 14 08.7  -4.78   5.50   0.465  Aqr
 2017-Feb-27 00:00     22 59 07.67 -07 28 55.7 22 59 59.43 -07 23 32.3  -4.47   4.80   0.180  Aqr
 2017-Feb-28 00:00     23 52 09.36 -03 10 33.2 23 53 00.52 -03 05 00.0  -5.82   6.28   2.383  Psc
 2017-Mar-01 00:00     00 45 28.53 +01 21 40.5 00 46 19.92 +01 27 05.8  -6.96   6.33   7.080  Cet
 2017-Mar-02 00:00     01 39 27.67 +05 51 47.3 01 40 20.16 +05 56 47.0  -7.93   6.12  14.085  Psc
 2017-Mar-03 00:00     02 34 29.65 +10 03 13.0 02 35 23.92 +10 07 29.5  -8.74   5.85  23.030  Cet
 2017-Mar-04 00:00     03 30 50.32 +13 39 50.5 03 31 46.75 +13 43 07.1  -9.41   5.58  33.407  Tau
 2017-Mar-05 00:00     04 28 31.06 +16 27 10.4 04 29 29.56 +16 29 13.0  -9.98   5.32  44.620  Tau
 2017-Mar-06 00:00     05 27 13.26 +18 13 43.5 05 28 13.28 +18 14 22.1 -10.46   5.07  56.042  Tau
 2017-Mar-07 00:00     06 26 18.52 +18 52 27.8 06 27 19.11 +18 51 38.3 -10.88   4.84  67.059  Gem
 2017-Mar-08 00:00     07 24 56.29 +18 21 53.2 07 25 56.43 +18 19 38.8 -11.26   4.60  77.106  Gem
